LANDSAT 9               
1 49260U 21088A   24178.64695040  .00000629  00000+0  14954-3 0  9998
2 49260  98.1870 248.1065 0001287 102.4220 257.7122 14.57108492146065
